1 45365U 20019F   22365.33324975  .00024237  00000-0  15108-2 0  9994
2 45365  52.9992 332.2963 0002504  80.4960 279.6313 15.09433588154464
1 45365U 20019F   22365.33324975  .00024237  00000-0  15108-2 0  9994
2 45365  52.9992 332.2963 0002504  80.4960 279.6313 15.09433588154464
1 45365U 20019F   23001.26021116  .00027793  00000-0  17261-2 0  9997
2 45365  52.9992 328.1101 0002508  83.5563 276.5713 15.09494052154608
1 45365U 20019F   23001.59126066  .00025743  00000-0  15998-2 0  9991
2 45365  52.9991 326.6144 0002505  85.1268 275.0008 15.09512652154657
1 45365U 20019F   23002.58438494  .00023395  00000-0  14538-2 0  9992
2 45365  52.9989 322.1286 0002539  88.6710 271.4571 15.09566836154804
1 45365U 20019F   23003.57747512  .00022933  00000-0  14236-2 0  9998
2 45365  52.9987 317.6424 0002522  92.6657 267.4621 15.09616665154955
1 45365U 20019F   23004.10710999  .00030848  00000-0  19050-2 0  9990
2 45365  52.9983 315.2500 0002545  94.3654 265.7626 15.09648294155030
1 45365U 20019F   23004.57053047  .00038517  00000-0  23694-2 0  9995
2 45365  52.9982 313.1562 0002541  96.4910 263.6369 15.09682667155109
1 45365U 20019F   23004.83533784  .00036676  00000-0  22565-2 0  9995
2 45365  52.9982 311.9598 0002624  97.0534 263.0754 15.09700343155143
1 45365U 20019F   23005.23254257  .00027685  00000-0  17088-2 0  9999
2 45365  52.9982 310.1656 0002669  96.4044 263.7250 15.09722225155205
1 45365U 20019F   23005.23254257  .00027685  00000-0  17088-2 0  9999
2 45365  52.9982 310.1656 0002669  96.4044 263.7250 15.09722225155205
1 45365U 20019F   23006.22552151  .00037853  00000-0  23216-2 0  9991
2 45365  52.9983 305.6782 0002716  99.5013 260.6284 15.09799919155351
1 45365U 20019F   23006.55650361  .00031484  00000-0  19346-2 0  9992
2 45365  52.9985 304.1827 0002727 100.0551 260.0747 15.09820628155400
1 45365U 20019F   23007.21845217  .00035226  00000-0  21583-2 0  9996
2 45365  52.9985 301.1913 0002702 103.1199 257.0093 15.09870326155509
1 45365U 20019F   23008.21133968  .00031665  00000-0  19395-2 0  9991
2 45365  52.9990 296.7041 0002808 104.3413 255.7888 15.09933667155656
1 45365U 20019F   23009.13799140  .00034731  00000-0  21206-2 0  9994
2 45365  52.9988 292.5162 0002808 107.6784 252.4512 15.10004027155792
1 45365U 20019F   23009.46892953  .00030562  00000-0  18683-2 0  9999
2 45365  52.9991 291.0205 0002780 108.8286 251.3005 15.10022666155847
1 45365U 20019F   23010.19698011  .00029383  00000-0  17953-2 0  9998
2 45365  52.9989 287.7298 0002805 111.0677 249.0613 15.10061633155954
1 45365U 20019F   23010.46172039  .00029692  00000-0  18131-2 0  9997
2 45365  52.9987 286.5332 0002810 112.1275 248.0014 15.10077980155990
1 45365U 20019F   23011.45446797  .00033556  00000-0  20417-2 0  9996
2 45365  52.9979 282.0454 0002848 116.2283 243.9000 15.10147785156140
1 45365U 20019F   23011.45446797  .00033556  00000-0  20417-2 0  9996
2 45365  52.9979 282.0454 0002848 116.2283 243.9000 15.10147785156140
1 45365U 20019F   23011.78537353  .00032587  00000-0  19823-2 0  9993
2 45365  52.9977 280.5492 0002809 118.4092 241.7181 15.10170312156195
1 45365U 20019F   23012.77806084  .00031585  00000-0  19186-2 0  9992
2 45365  52.9974 276.0607 0002821 121.4859 238.6407 15.10237962156347
1 45365U 20019F   23012.91041573  .00033230  00000-0  20166-2 0  9991
2 45365  52.9974 275.4621 0002837 121.6179 238.5088 15.10247848156360
1 45365U 20019F   23013.43982683  .00035175  00000-0  21307-2 0  9993
2 45365  52.9973 273.0680 0002801 123.3161 236.8098 15.10286865156442
1 45365U 20019F   23014.10156993  .00039597  00000-0  23913-2 0  9992
2 45365  52.9970 270.0748 0002790 124.5104 235.6149 15.10341606156548
1 45365U 20019F   23015.09413684  .00053256  00000-0  31955-2 0  9997
2 45365  52.9972 265.5853 0002762 126.2402 233.8843 15.10437839156696
1 45365U 20019F   23015.09413684  .00053256  00000-0  31955-2 0  9997
2 45365  52.9972 265.5853 0002762 126.2402 233.8843 15.10437839156696
1 45365U 20019F   23015.95430382  .00060347  00000-0  36048-2 0  9993
2 45365  52.9976 261.6936 0002746 129.9704 230.1527 15.10540629156822
1 45365U 20019F   23015.95430382  .00060347  00000-0  36048-2 0  9993
2 45365  52.9976 261.6936 0002746 129.9704 230.1527 15.10540629156822
1 45365U 20019F   23016.94673045  .00048313  00000-0  28856-2 0  9995
2 45365  52.9979 257.2037 0002698 133.5680 226.5535 15.10649997156970
1 45365U 20019F   23017.01289031  .00047929  00000-0  28627-2 0  9990
2 45365  52.9977 256.9046 0002690 134.0160 226.1052 15.10653189156984
1 45365U 20019F   23017.01289031  .00047929  00000-0  28627-2 0  9990
2 45365  52.9977 256.9046 0002690 134.0160 226.1052 15.10653189156984
1 45365U 20019F   23017.93910346  .00033570  00000-0  20108-2 0  9994
2 45365  52.9979 252.7140 0002658 136.7719 223.3480 15.10717940157125
1 45365U 20019F   23018.33603909  .00046013  00000-0  27420-2 0  9993
2 45365  52.9979 250.9178 0002601 138.0574 222.0616 15.10755596157180
1 45365U 20019F   23018.33603909  .00046013  00000-0  27420-2 0  9993
2 45365  52.9979 250.9178 0002601 138.0574 222.0616 15.10755596157180
1 45365U 20019F   23018.93142604  .00043533  00000-0  25927-2 0  9993
2 45365  52.9975 248.2237 0002593 140.5864 219.5315 15.10802612157271
1 45365U 20019F   23019.32833965  .00034329  00000-0  20493-2 0  9990
2 45365  52.9972 246.4270 0002564 141.6731 218.4441 15.10829690157338
1 45365U 20019F   23019.32833965  .00034329  00000-0  20493-2 0  9990
2 45365  52.9972 246.4270 0002564 141.6731 218.4441 15.10829690157338
1 45365U 20019F   23019.65909416  .00042556  00000-0  25310-2 0  9995
2 45365  52.9969 244.9298 0002532 143.1774 216.9390 15.10863470157381
1 45365U 20019F   23020.05599151  .00041165  00000-0  24472-2 0  9995
2 45365  52.9966 243.1336 0002598 146.2562 213.8594 15.10894658157444
1 45365U 20019F   23020.91590984  .00040989  00000-0  24325-2 0  9995
2 45365  52.9956 239.2412 0002535 149.3361 210.7778 15.10959681157578
1 45365U 20019F   23022.56948755  .00040957  00000-0  24213-2 0  9992
2 45365  52.9947 231.7550 0002308 152.8344 207.2767 15.11098789157827
1 45365U 20019F   23023.82610200  .00039080  00000-0  23052-2 0  9998
2 45365  52.9954 226.0647 0002074 153.2659 206.8438 15.11201947158017
1 45365U 20019F   23024.81810256  .00041199  00000-0  24226-2 0  9999
2 45365  52.9966 221.5721 0001913 155.2257 204.8826 15.11290541158163
1 45365U 20019F   23025.54553786  .00035243  00000-0  20737-2 0  9998
2 45365  52.9971 218.2771 0001827 157.1735 202.9337 15.11341484158274
1 45365U 20019F   23025.81005317  .00038510  00000-0  22619-2 0  9991
2 45365  52.9971 217.0787 0001799 158.3294 201.7772 15.11363248158316
1 45365U 20019F   23025.81005317  .00038510  00000-0  22619-2 0  9991
2 45365  52.9971 217.0787 0001799 158.3294 201.7772 15.11363248158316
1 45365U 20019F   23026.93420097  .00041899  00000-0  24519-2 0  9996
2 45365  52.9975 211.9863 0001623 163.6520 196.4523 15.11457133158484
1 45365U 20019F   23027.19869618  .00035943  00000-0  21065-2 0  9997
2 45365  52.9975 210.7880 0001593 165.2530 194.8507 15.11475382158520
1 45365U 20019F   23027.72767524  .00038218  00000-0  22353-2 0  9998
2 45365  52.9975 208.3907 0001499 168.1948 191.9078 15.11519743158603
1 45365U 20019F   23028.19052217  .00034521  00000-0  20201-2 0  9999
2 45365  52.9971 206.2935 0001439 171.9490 188.1524 15.11549188158672
1 45365U 20019F   23028.52112157  .00032640  00000-0  19104-2 0  9996
2 45365  52.9971 204.7957 0001429 172.9279 187.1732 15.11569744158720
1 45365U 20019F   23028.85171679  .00030061  00000-0  17606-2 0  9996
2 45365  52.9969 203.2971 0001322 174.3271 185.7735 15.11587253158774
1 45365U 20019F   23029.51289365  .00027904  00000-0  16342-2 0  9990
2 45365  52.9965 200.3011 0001251 177.6532 182.4465 15.11626708158874
1 45365U 20019F   23029.84347616  .00026688  00000-0  15633-2 0  9990
2 45365  52.9960 198.8030 0001182 179.2552 180.8441 15.11643638158927
1 45365U 20019F   23030.17405451  .00025652  00000-0  15027-2 0  9997
2 45365  52.9958 197.3048 0001125 181.4090 178.6897 15.11661645158979
1 45365U 20019F   23030.83520046  .00025499  00000-0  14925-2 0  9993
2 45365  52.9952 194.3089 0000962 185.1776 174.9205 15.11695344159072
1 45365U 20019F   23030.83520046  .00025499  00000-0  14925-2 0  9993
2 45365  52.9952 194.3089 0000962 185.1776 174.9205 15.11695344159072
1 45365U 20019F   23031.43021898  .00027836  00000-0  16257-2 0  9998
2 45365  52.9951 191.6117 0000877 185.9167 174.1813 15.11728603159162
